start=new Date('2022-05-28T00:00:00.000Z').valueOf();
sats=[{"ARG_OF_PERICENTER":"45.8550","COUNTRY_CODE":"US","RCS_SIZE":"LARGE","BSTAR":"-0.00003915000000","APOAPSIS":"548.421","TLE_LINE2":"2 48375  53.0550  75.1409 0001701  45.8550 314.2579 15.06390528 58888","MEAN_ELEMENT_THEORY":"SGP4","DECAY_DATE":null,"LAUNCH_DATE":"2021-05-04","TIME_SYSTEM":"UTC","GP_ID":"204716192","MEAN_MOTION_DDOT":"0.0000000000000","INCLINATION":"53.0550","ECCENTRICITY":"0.00017010","EPHEMERIS_TYPE":"0","MEAN_MOTION_DOT":"-0.00000864","PERIOD":"95.593","OBJECT_NAME":"STARLINK-2603","FILE":"3468079","REV_AT_EPOCH":"5888","CLASSIFICATION_TYPE":"U","EPOCH":"2022-05-27T19:22:17.792832","MEAN_MOTION":"15.06390528","TLE_LINE1":"1 48375U 21038Y   22147.80715038 -.00000864  00000-0 -39150-4 0  9991","ELEMENT_SET_NO":"999","OBJECT_ID":"2021-038Y","PERIAPSIS":"546.065","SITE":"AFETR","REF_FRAME":"TEME","NORAD_CAT_ID":"48375","MEAN_ANOMALY":"314.2579","CENTER_NAME":"EARTH","SEMIMAJOR_AXIS":"6925.378","OBJECT_TYPE":"PAYLOAD","RA_OF_ASC_NODE":"75.1409"},{"OBJECT_ID":"2021-038Z","PERIAPSIS":"546.124","REF_FRAME":"TEME","SITE":"AFETR","NORAD_CAT_ID":"48376","MEAN_MOTION":"15.06388672","TLE_LINE1":"1 48376U 21038Z   22147.53807525 -.00000986  00000-0 -47289-4 0  9992","ELEMENT_SET_NO":"999","CLASSIFICATION_TYPE":"U","EPOCH":"2022-05-27T12:54:49.701600","OBJECT_NAME":"STARLINK-2610","PERIOD":"95.593","FILE":"3467585","REV_AT_EPOCH":"5884","RA_OF_ASC_NODE":"76.3501","OBJECT_TYPE":"PAYLOAD","SEMIMAJOR_AXIS":"6925.383","MEAN_ANOMALY":"294.8706","CENTER_NAME":"EARTH","DECAY_DATE":null,"LAUNCH_DATE":"2021-05-04","APOAPSIS":"548.373","BSTAR":"-0.00004728900000","TLE_LINE2":"2 48376  53.0563  76.3501 0001624  65.2451 294.8706 15.06388672 58847","MEAN_ELEMENT_THEORY":"SGP4","RCS_SIZE":"LARGE","ARG_OF_PERICENTER":"65.2451","COUNTRY_CODE":"US","EPHEMERIS_TYPE":"0","MEAN_MOTION_DOT":"-0.00000986","INCLINATION":"53.0563","ECCENTRICITY":"0.00016240","TIME_SYSTEM":"UTC","GP_ID":"204678475","MEAN_MOTION_DDOT":"0.0000000000000"},{"ELEMENT_SET_NO":"999","TLE_LINE1":"1 48377U 21038AA  22147.53438914  .00000671  00000-0  63977-4 0  9996","MEAN_MOTION":"15.06388268","NORAD_CAT_ID":"48377","REF_FRAME":"TEME","SITE":"AFETR","PERIAPSIS":"546.011","OBJECT_ID":"2021-038AA","REV_AT_EPOCH":"5884","FILE":"3467585","PERIOD":"95.593","OBJECT_NAME":"STARLINK-2499","EPOCH":"2022-05-27T12:49:31.221696","CLASSIFICATION_TYPE":"U","OBJECT_TYPE":"PAYLOAD","RA_OF_ASC_NODE":"76.3573","CENTER_NAME":"EARTH","MEAN_ANOMALY":"304.3018","SEMIMAJOR_AXIS":"6925.385","MEAN_ELEMENT_THEORY":"SGP4","TLE_LINE2":"2 48377  53.0548  76.3573 0001788  55.8140 304.3018 15.06388268 58845","APOAPSIS":"548.488","BSTAR":"0.00006397700000","LAUNCH_DATE":"2021-05-04","DECAY_DATE":null,"COUNTRY_CODE":"US","ARG_OF_PERICENTER":"55.8140","RCS_SIZE":"LARGE","INCLINATION":"53.0548","ECCENTRICITY":"0.00017880","MEAN_MOTION_DOT":"0.00000671","EPHEMERIS_TYPE":"0","MEAN_MOTION_DDOT":"0.0000000000000","TIME_SYSTEM":"UTC","GP_ID":"204679725"},{"MEAN_MOTION_DDOT":"0.0000000000000","GP_ID":"204679470","TIME_SYSTEM":"UTC","INCLINATION":"53.0550","ECCENTRICITY":"0.00015450","MEAN_MOTION_DOT":"0.00001396","EPHEMERIS_TYPE":"0","COUNTRY_CODE":"US","ARG_OF_PERICENTER":"53.7334","RCS_SIZE":"LARGE","TLE_LINE2":"2 48378  53.0550  76.3811 0001545  53.7334 306.3797 15.06398264 58840","MEAN_ELEMENT_THEORY":"SGP4","BSTAR":"0.00011258000000","APOAPSIS":"548.289","LAUNCH_DATE":"2021-05-04","DECAY_DATE":null,"CENTER_NAME":"EARTH","MEAN_ANOMALY":"306.3797","SEMIMAJOR_AXIS":"6925.354","OBJECT_TYPE":"PAYLOAD","RA_OF_ASC_NODE":"76.3811","REV_AT_EPOCH":"5884","PERIOD":"95.592","OBJECT_NAME":"STARLINK-2526","FILE":"3467585","EPOCH":"2022-05-27T12:44:12.283008","CLASSIFICATION_TYPE":"U","MEAN_MOTION":"15.06398264","TLE_LINE1":"1 48378U 21038AB  22147.53069772  .00001396  00000-0  11258-3 0  9998","ELEMENT_SET_NO":"999","SITE":"AFETR","REF_FRAME":"TEME","NORAD_CAT_ID":"48378","PERIAPSIS":"546.149","OBJECT_ID":"2021-038AB"},{"GP_ID":"204678730","TIME_SYSTEM":"UTC","MEAN_MOTION_DDOT":"0.0000000000000","ECCENTRICITY":"0.00016510","INCLINATION":"53.0566","EPHEMERIS_TYPE":"0","MEAN_MOTION_DOT":"-0.00000207","ARG_OF_PERICENTER":"60.7528","COUNTRY_CODE":"US","RCS_SIZE":"LARGE","BSTAR":"0.00000502300000","APOAPSIS":"548.414","MEAN_ELEMENT_THEORY":"SGP4","TLE_LINE2":"2 48379  53.0566  76.3986 0001651  60.7528 299.3626 15.06381420 58840","DECAY_DATE":null,"LAUNCH_DATE":"2021-05-04","MEAN_ANOMALY":"299.3626","CENTER_NAME":"EARTH","SEMIMAJOR_AXIS":"6925.406","OBJECT_TYPE":"PAYLOAD","RA_OF_ASC_NODE":"76.3986","FILE":"3467585","PERIOD":"95.593","OBJECT_NAME":"STARLINK-2612","REV_AT_EPOCH":"5884","CLASSIFICATION_TYPE":"U","EPOCH":"2022-05-27T12:38:54.685248","ELEMENT_SET_NO":"999","TLE_LINE1":"1 48379U 21038AC  22147.52702182 -.00000207  00000-0  50230-5 0  9993","MEAN_MOTION":"15.06381420","PERIAPSIS":"546.127","OBJECT_ID":"2021-038AC","NORAD_CAT_ID":"48379","REF_FRAME":"TEME","SITE":"AFETR"},{"CENTER_NAME":"EARTH","MEAN_ANOMALY":"314.7269","SEMIMAJOR_AXIS":"6925.396","OBJECT_TYPE":"PAYLOAD","RA_OF_ASC_NODE":"77.7713","REV_AT_EPOCH":"5879","PERIOD":"95.593","OBJECT_NAME":"STARLINK-2614","FILE":"3467585","EPOCH":"2022-05-27T05:17:00.256704","CLASSIFICATION_TYPE":"U","ELEMENT_SET_NO":"999","TLE_LINE1":"1 48380U 21038AD  22147.22014186 -.00000411  00000-0 -87055-5 0  9995","MEAN_MOTION":"15.06384457","REF_FRAME":"TEME","SITE":"AFETR","NORAD_CAT_ID":"48380","OBJECT_ID":"2021-038AD","PERIAPSIS":"545.799","MEAN_MOTION_DDOT":"0.0000000000000","GP_ID":"204678975","TIME_SYSTEM":"UTC","ECCENTRICITY":"0.00021120","INCLINATION":"53.0553","MEAN_MOTION_DOT":"-0.00000411","EPHEMERIS_TYPE":"0","COUNTRY_CODE":"US","ARG_OF_PERICENTER":"45.3892","RCS_SIZE":"LARGE","TLE_LINE2":"2 48380  53.0553  77.7713 0002112  45.3892 314.7269 15.06384457 58799","MEAN_ELEMENT_THEORY":"SGP4","APOAPSIS":"548.724","BSTAR":"-0.00000870550000","LAUNCH_DATE":"2021-05-04","DECAY_DATE":null},{"NORAD_CAT_ID":"48381","REF_FRAME":"TEME","SITE":"AFETR","OBJECT_ID":"2021-038AE","PERIAPSIS":"545.857","TLE_LINE1":"1 48381U 21038AE  22147.52333158 -.00000910  00000-0 -42159-4 0  9991","ELEMENT_SET_NO":"999","MEAN_MOTION":"15.06399567","EPOCH":"2022-05-27T12:33:35.848512","CLASSIFICATION_TYPE":"U","REV_AT_EPOCH":"5884","FILE":"3467585","PERIOD":"95.592","OBJECT_NAME":"STARLINK-2630","RA_OF_ASC_NODE":"76.4046","OBJECT_TYPE":"PAYLOAD","SEMIMAJOR_AXIS":"6925.350","CENTER_NAME":"EARTH","MEAN_ANOMALY":"306.8943","LAUNCH_DATE":"2021-05-04","DECAY_DATE":null,"MEAN_ELEMENT_THEORY":"SGP4","TLE_LINE2":"2 48381  53.0559  76.4046 0001961  53.2225 306.8943 15.06399567 58845","BSTAR":"-0.00004215900000","APOAPSIS":"548.573","RCS_SIZE":"LARGE","COUNTRY_CODE":"US","ARG_OF_PERICENTER":"53.2225","MEAN_MOTION_DOT":"-0.00000910","EPHEMERIS_TYPE":"0","INCLINATION":"53.0559","ECCENTRICITY":"0.00019610","MEAN_MOTION_DDOT":"0.0000000000000","TIME_SYSTEM":"UTC","GP_ID":"204679225"},{"FILE":"3467585","OBJECT_NAME":"STARLINK-2585","PERIOD":"95.592","REV_AT_EPOCH":"5884","CLASSIFICATION_TYPE":"U","EPOCH":"2022-05-27T12:28:16.927968","MEAN_MOTION":"15.06398752","TLE_LINE1":"1 48382U 21038AF  22147.51964037  .00001011  00000-0  86746-4 0  9998","ELEMENT_SET_NO":"999","PERIAPSIS":"545.903","OBJECT_ID":"2021-038AF","NORAD_CAT_ID":"48382","SITE":"AFETR","REF_FRAME":"TEME","MEAN_ANOMALY":"316.6491","CENTER_NAME":"EARTH","SEMIMAJOR_AXIS":"6925.352","OBJECT_TYPE":"PAYLOAD","RA_OF_ASC_NODE":"76.4365","ARG_OF_PERICENTER":"43.4648","COUNTRY_CODE":"US","RCS_SIZE":"LARGE","APOAPSIS":"548.532","BSTAR":"0.00008674600000","MEAN_ELEMENT_THEORY":"SGP4","TLE_LINE2":"2 48382  53.0554  76.4365 0001898  43.4648 316.6491 15.06398752 58846","DECAY_DATE":null,"LAUNCH_DATE":"2021-05-04","GP_ID":"204679971","TIME_SYSTEM":"UTC","MEAN_MOTION_DDOT":"0.0000000000000","INCLINATION":"53.0554","ECCENTRICITY":"0.00018980","EPHEMERIS_TYPE":"0","MEAN_MOTION_DOT":"0.00001011"},{"TLE_LINE1":"1 48383U 21038AG  22147.18423129 -.00000894  00000-0 -41131-4 0  9993","MEAN_MOTION":"15.06392997","ELEMENT_SET_NO":"999","PERIAPSIS":"545.974","OBJECT_ID":"2021-038AG","SITE":"AFETR","REF_FRAME":"TEME","NORAD_CAT_ID":"48383","OBJECT_NAME":"STARLINK-2599","PERIOD":"95.593","FILE":"3467585","REV_AT_EPOCH":"6001","CLASSIFICATION_TYPE":"U","EPOCH":"2022-05-27T04:25:17.583456","OBJECT_TYPE":"PAYLOAD","RA_OF_ASC_NODE":"77.9355","MEAN_ANOMALY":"303.7502","CENTER_NAME":"EARTH","SEMIMAJOR_AXIS":"6925.370","BSTAR":"-0.00004113100000","APOAPSIS":"548.496","TLE_LINE2":"2 48383  53.0575  77.9355 0001821  56.3660 303.7502 15.06392997 60015","MEAN_ELEMENT_THEORY":"SGP4","DECAY_DATE":null,"LAUNCH_DATE":"2021-05-04","ARG_OF_PERICENTER":"56.3660","COUNTRY_CODE":"US","RCS_SIZE":"LARGE","INCLINATION":"53.0575","ECCENTRICITY":"0.00018210","EPHEMERIS_TYPE":"0","MEAN_MOTION_DOT":"-0.00000894","GP_ID":"204678230","TIME_SYSTEM":"UTC","MEAN_MOTION_DDOT":"0.0000000000000"},{"FILE":"3468079","OBJECT_NAME":"STARLINK-2601","PERIOD":"95.593","REV_AT_EPOCH":"6011","CLASSIFICATION_TYPE":"U","EPOCH":"2022-05-27T20:15:22.541760","MEAN_MOTION":"15.06392051","TLE_LINE1":"1 48384U 21038AH  22147.84401090 -.00000701  00000-0 -28188-4 0  9994","ELEMENT_SET_NO":"999","OBJECT_ID":"2021-038AH","PERIAPSIS":"545.963","NORAD_CAT_ID":"48384","REF_FRAME":"TEME","SITE":"AFETR","MEAN_ANOMALY":"315.8232","CENTER_NAME":"EARTH","SEMIMAJOR_AXIS":"6925.373","OBJECT_TYPE":"PAYLOAD","RA_OF_ASC_NODE":"74.9733","ARG_OF_PERICENTER":"44.2904","COUNTRY_CODE":"US","RCS_SIZE":"LARGE","APOAPSIS":"548.513","BSTAR":"-0.00002818800000","MEAN_ELEMENT_THEORY":"SGP4","TLE_LINE2":"2 48384  53.0574  74.9733 0001841  44.2904 315.8232 15.06392051 60117","DECAY_DATE":null,"LAUNCH_DATE":"2021-05-04","TIME_SYSTEM":"UTC","GP_ID":"204716437","MEAN_MOTION_DDOT":"0.0000000000000","INCLINATION":"53.0574","ECCENTRICITY":"0.00018410","EPHEMERIS_TYPE":"0","MEAN_MOTION_DOT":"-0.00000701"}];
